ONEWEB-0435             
1 51632U 22012L   26009.21929339  .00000604  00000+0  16941-2 0  9991
2 51632  87.8782  67.9735 0001601  87.5564 272.5747 13.10373565188497
ONEWEB-0436             
1 51633U 22012M   26009.12594764  .00000014  00000+0  29122-5 0  9995
2 51633  87.9094  37.4541 0001614  89.6838 270.4479 13.17650084192735
ONEWEB-0438             
1 51634U 22012N   26009.20268522 -.00000046  00000+0 -16698-3 0  9994
2 51634  87.8783  67.9778 0001946 102.7297 257.4048 13.10376153188528
ONEWEB-0439             
1 51635U 22012P   26009.20600564  .00000162  00000+0  42660-3 0  9996
2 51635  87.8785  67.9658 0001818  98.0435 262.0899 13.10375559188500
ONEWEB-0442             
1 51636U 22012Q   26009.11836127  .00000035  00000+0  56501-4 0  9992
2 51636  87.9083  37.5005 0002240 106.0251 254.1127 13.17648308192725
ONEWEB-0443             
1 51637U 22012R   26009.13776077  .00000060  00000+0  12222-3 0  9991
2 51637  87.9083  37.5006 0002083  90.6574 269.4796 13.17649500192779
ONEWEB-0444             
1 51638U 22012S   26009.19603794 -.00000349  00000+0 -10362-2 0  9997
2 51638  87.8785  67.9666 0001777  98.7374 261.3955 13.10375416188513
ONEWEB-0445             
1 51639U 22012T   26009.21762388  .00000737  00000+0  20740-2 0  9996
2 51639  87.8797  67.9337 0001790 107.4117 252.7206 13.10373294188526
